JY1SAT (JO-97)          
1 43803U 18099AX  26068.68634132  .00017774  00000+0  60804-3 0  9996
2 43803  97.4249 131.3625 0004723 256.6795 103.3919 15.30302628398390
STARLINK-35847          
1 66621U 25271E   26068.49236143  .00022217  00000+0  76012-3 0  9994
2 66621  53.1575 141.0478 0001007  81.2610 278.8505 15.30195077 17539
